CTC2_L_00142001-01
1 80579U 23143LC  26070.40843750  .00000000  00000+0  00000-0 0  9997
2 80579  55.0000   0.0000 0000000   0.0000   0.0000 15.08756051    10
CTC2_L_00142001-02
1 80580U 25522JF  26070.40843750  .00000000  00000+0  00000-0 0  9992
2 80580  55.0000   0.0000 0000000   0.0000  90.0000 15.08756051    11
CTC2_L_00142001-03
1 80581U 24210DP  26070.40843750  .00000000  00000+0  00000-0 0  9996
2 80581  55.0000   0.0000 0000000   0.0000 180.0000 15.08756051    12
CTC2_L_00142001-04
1 80582U 23207BL  26070.40843750  .00000000  00000+0  00000-0 0  9992
2 80582  55.0000   0.0000 0000000   0.0000 270.0000 15.08756051    13
CTC2_L_00142002-01
1 80583U 23546NT  26070.40843750  .00000000  00000+0  00000-0 0  9999
2 80583  55.0000  12.0000 0000000   0.0000  12.0000 15.08756051    11
CTC2_L_00142002-02
1 80584U 23774AK  26070.40843750  .00000000  00000+0  00000-0 0  9993
2 80584  55.0000  12.0000 0000000   0.0000 102.0000 15.08756051    12
CTC2_L_00142002-03
1 80585U 23790NI  26070.40843750  .00000000  00000+0  00000-0 0  9992
2 80585  55.0000  12.0000 0000000   0.0000 192.0000 15.08756051    12
CTC2_L_00142002-04
1 80586U 26311MB  26070.40843750  .00000000  00000+0  00000-0 0  9995
2 80586  55.0000  12.0000 0000000   0.0000 282.0000 15.08756051    13
CTC2_L_00142003-01
1 80587U 23272FE  26070.40843750  .00000000  00000+0  00000-0 0  9999
2 80587  55.0000  24.0000 0000000   0.0000  24.0000 15.08756051    11
CTC2_L_00142003-02
1 80588U 24118MW  26070.40843750  .00000000  00000+0  00000-0 0  9990
2 80588  55.0000  24.0000 0000000   0.0000 114.0000 15.08756051    12
CTC2_L_00142003-03
1 80589U 24586IU  26070.40843750  .00000000  00000+0  00000-0 0  9990
2 80589  55.0000  24.0000 0000000   0.0000 204.0000 15.08756051    13
CTC2_L_00142003-04
1 80590U 22552PW  26070.40843750  .00000000  00000+0  00000-0 0  9993
2 80590  55.0000  24.0000 0000000   0.0000 294.0000 15.08756051    14
CTC2_L_00142004-01
1 80591U 25542KC  26070.40843750  .00000000  00000+0  00000-0 0  9996
2 80591  55.0000  36.0000 0000000   0.0000  36.0000 15.08756051    12
CTC2_L_00142004-02
1 80592U 26762OE  26070.40843750  .00000000  00000+0  00000-0 0  9992
2 80592  55.0000  36.0000 0000000   0.0000 126.0000 15.08756051    13
CTC2_L_00142004-03
1 80593U 24240SI  26070.40843750  .00000000  00000+0  00000-0 0  9992
2 80593  55.0000  36.0000 0000000   0.0000 216.0000 15.08756051    14
CTC2_L_00142004-04
1 80594U 22962AD  26070.40843750  .00000000  00000+0  00000-0 0  9992
2 80594  55.0000  36.0000 0000000   0.0000 306.0000 15.08756051    15
CTC2_L_00142005-01
1 80595U 26582RA  26070.40843750  .00000000  00000+0  00000-0 0  9995
2 80595  55.0000  48.0000 0000000   0.0000  48.0000 15.08756051    12
CTC2_L_00142005-02
1 80596U 26501YB  26070.40843750  .00000000  00000+0  00000-0 0  9997
2 80596  55.0000  48.0000 0000000   0.0000 138.0000 15.08756051    13
CTC2_L_00142005-03
1 80597U 23818YJ  26070.40843750  .00000000  00000+0  00000-0 0  9996
2 80597  55.0000  48.0000 0000000   0.0000 228.0000 15.08756051    14
CTC2_L_00142005-04
1 80598U 24726HV  26070.40843750  .00000000  00000+0  00000-0 0  9996
2 80598  55.0000  48.0000 0000000   0.0000 318.0000 15.08756051    15
CTC2_L_00142006-01
1 80599U 26568RV  26070.40843750  .00000000  00000+0  00000-0 0  9993
2 80599  55.0000  60.0000 0000000   0.0000  60.0000 15.08756051    14
CTC2_L_00142006-02
1 80600U 25576ZI  26070.40843750  .00000000  00000+0  00000-0 0  9994
2 80600  55.0000  60.0000 0000000   0.0000 150.0000 15.08756051    17
CTC2_L_00142006-03
1 80601U 23495GZ  26070.40843750  .00000000  00000+0  00000-0 0  9993
2 80601  55.0000  60.0000 0000000   0.0000 240.0000 15.08756051    18
CTC2_L_00142006-04
1 80602U 25700Z   26070.40843750  .00000000  00000+0  00000-0 0  9995
2 80602  55.0000  60.0000 0000000   0.0000 330.0000 15.08756051    19
CTC2_L_00142007-01
1 80603U 24700FX  26070.40843750  .00000000  00000+0  00000-0 0  9995
2 80603  55.0000  72.0000 0000000   0.0000  72.0000 15.08756051    16
CTC2_L_00142007-02
1 80604U 22351DY  26070.40843750  .00000000  00000+0  00000-0 0  9996
2 80604  55.0000  72.0000 0000000   0.0000 162.0000 15.08756051    17
CTC2_L_00142007-03
1 80605U 25406R   26070.40843750  .00000000  00000+0  00000-0 0  9991
2 80605  55.0000  72.0000 0000000   0.0000 252.0000 15.08756051    18
CTC2_L_00142007-04
1 80606U 22009XJ  26070.40843750  .00000000  00000+0  00000-0 0  9998
2 80606  55.0000  72.0000 0000000   0.0000 342.0000 15.08756051    19
CTC2_L_00142008-01
1 80607U 23349QI  26070.40843750  .00000000  00000+0  00000-0 0  9997
2 80607  55.0000  84.0000 0000000   0.0000  84.0000 15.08756051    16
CTC2_L_00142008-02
1 80608U 26685DC  26070.40843750  .00000000  00000+0  00000-0 0  9994
2 80608  55.0000  84.0000 0000000   0.0000 174.0000 15.08756051    17
CTC2_L_00142008-03
1 80609U 22663YH  26070.40843750  .00000000  00000+0  00000-0 0  9997
2 80609  55.0000  84.0000 0000000   0.0000 264.0000 15.08756051    18
CTC2_L_00142008-04
1 80610U 23986HD  26070.40843750  .00000000  00000+0  00000-0 0  9998
2 80610  55.0000  84.0000 0000000   0.0000 354.0000 15.08756051    10
CTC2_L_00142009-01
1 80611U 22042VK  26070.40843750  .00000000  00000+0  00000-0 0  9991
2 80611  55.0000  96.0000 0000000   0.0000  96.0000 15.08756051    17
CTC2_L_00142009-02
1 80612U 23979AY  26070.40843750  .00000000  00000+0  00000-0 0  9992
2 80612  55.0000  96.0000 0000000   0.0000 186.0000 15.08756051    18
CTC2_L_00142009-03
1 80613U 24592VW  26070.40843750  .00000000  00000+0  00000-0 0  9995
2 80613  55.0000  96.0000 0000000   0.0000 276.0000 15.08756051    19
CTC2_L_00142009-04
1 80614U 22883WQ  26070.40843750  .00000000  00000+0  00000-0 0  9997
2 80614  55.0000  96.0000 0000000   0.0000   6.0000 15.08756051    11
CTC2_L_00142010-01
1 80615U 23144AE  26070.40843750  .00000000  00000+0  00000-0 0  9999
2 80615  55.0000 108.0000 0000000   0.0000 108.0000 15.08756051    19
CTC2_L_00142010-02
1 80616U 26404NX  26070.40843750  .00000000  00000+0  00000-0 0  9992
2 80616  55.0000 108.0000 0000000   0.0000 198.0000 15.08756051    19
CTC2_L_00142010-03
1 80617U 25727ZU  26070.40843750  .00000000  00000+0  00000-0 0  9990
2 80617  55.0000 108.0000 0000000   0.0000 288.0000 15.08756051    10
CTC2_L_00142010-04
1 80618U 26112EA  26070.40843750  .00000000  00000+0  00000-0 0  9990
2 80618  55.0000 108.0000 0000000   0.0000  18.0000 15.08756051    12
CTC2_L_00142011-01
1 80619U 23110MF  26070.40843750  .00000000  00000+0  00000-0 0  9996
2 80619  55.0000 120.0000 0000000   0.0000 120.0000 15.08756051    11
CTC2_L_00142011-02
1 80620U 26341FX  26070.40843750  .00000000  00000+0  00000-0 0  9997
2 80620  55.0000 120.0000 0000000   0.0000 210.0000 15.08756051    13
CTC2_L_00142011-03
1 80621U 26465AS  26070.40843750  .00000000  00000+0  00000-0 0  9995
2 80621  55.0000 120.0000 0000000   0.0000 300.0000 15.08756051    14
CTC2_L_00142011-04
1 80622U 24780AQ  26070.40843750  .00000000  00000+0  00000-0 0  9994
2 80622  55.0000 120.0000 0000000   0.0000  30.0000 15.08756051    15
CTC2_L_00142012-01
1 80623U 23924KY  26070.40843750  .00000000  00000+0  00000-0 0  9994
2 80623  55.0000 132.0000 0000000   0.0000 132.0000 15.08756051    12
CTC2_L_00142012-02
1 80624U 24353UY  26070.40843750  .00000000  00000+0  00000-0 0  9992
2 80624  55.0000 132.0000 0000000   0.0000 222.0000 15.08756051    13
CTC2_L_00142012-03
1 80625U 23641CJ  26070.40843750  .00000000  00000+0  00000-0 0  9992
2 80625  55.0000 132.0000 0000000   0.0000 312.0000 15.08756051    14
CTC2_L_00142012-04
1 80626U 24572ND  26070.40843750  .00000000  00000+0  00000-0 0  9997
2 80626  55.0000 132.0000 0000000   0.0000  42.0000 15.08756051    15
CTC2_L_00142013-01
1 80627U 25195RL  26070.40843750  .00000000  00000+0  00000-0 0  9990
2 80627  55.0000 144.0000 0000000   0.0000 144.0000 15.08756051    12
CTC2_L_00142013-02
1 80628U 23596YQ  26070.40843750  .00000000  00000+0  00000-0 0  9994
2 80628  55.0000 144.0000 0000000   0.0000 234.0000 15.08756051    13
CTC2_L_00142013-03
1 80629U 24232DJ  26070.40843750  .00000000  00000+0  00000-0 0  9993
2 80629  55.0000 144.0000 0000000   0.0000 324.0000 15.08756051    14
CTC2_L_00142013-04
1 80630U 22931EM  26070.40843750  .00000000  00000+0  00000-0 0  9999
2 80630  55.0000 144.0000 0000000   0.0000  54.0000 15.08756051    16
CTC2_L_00142014-01
1 80631U 24719SI  26070.40843750  .00000000  00000+0  00000-0 0  9996
2 80631  55.0000 156.0000 0000000   0.0000 156.0000 15.08756051    13
CTC2_L_00142014-02
1 80632U 25782SP  26070.40843750  .00000000  00000+0  00000-0 0  9998
2 80632  55.0000 156.0000 0000000   0.0000 246.0000 15.08756051    14
CTC2_L_00142014-03
1 80633U 26280FQ  26070.40843750  .00000000  00000+0  00000-0 0  9993
2 80633  55.0000 156.0000 0000000   0.0000 336.0000 15.08756051    15
CTC2_L_00142014-04
1 80634U 23798CK  26070.40843750  .00000000  00000+0  00000-0 0  9995
2 80634  55.0000 156.0000 0000000   0.0000  66.0000 15.08756051    16
CTC2_L_00142015-01
1 80635U 23500HC  26070.40843750  .00000000  00000+0  00000-0 0  9997
2 80635  55.0000 168.0000 0000000   0.0000 168.0000 15.08756051    13
CTC2_L_00142015-02
1 80636U 26622ZS  26070.40843750  .00000000  00000+0  00000-0 0  9996
2 80636  55.0000 168.0000 0000000   0.0000 258.0000 15.08756051    14
CTC2_L_00142015-03
1 80637U 22218GX  26070.40843750  .00000000  00000+0  00000-0 0  9994
2 80637  55.0000 168.0000 0000000   0.0000 348.0000 15.08756051    15
CTC2_L_00142015-04
1 80638U 25662MF  26070.40843750  .00000000  00000+0  00000-0 0  9991
2 80638  55.0000 168.0000 0000000   0.0000  78.0000 15.08756051    16
CTC2_L_00142016-01
1 80639U 23411FP  26070.40843750  .00000000  00000+0  00000-0 0  9992
2 80639  55.0000 180.0000 0000000   0.0000 180.0000 15.08756051    15
CTC2_L_00142016-02
1 80640U 23492QX  26070.40843750  .00000000  00000+0  00000-0 0  9993
2 80640  55.0000 180.0000 0000000   0.0000 270.0000 15.08756051    17
